ONEWEB-0464             
1 51651U 22012AF  26140.46787111  .00000175  00000+0  46634-3 0  9991
2 51651  87.8856  41.7984 0002026  71.7644 288.3704 13.10374908205694
ONEWEB-0468             
1 51652U 22012AG  26140.47451753  .00000533  00000+0  14892-2 0  9991
2 51652  87.8854  41.7915 0002008  69.5561 290.5782 13.10376687205675
ONEWEB-0473             
1 51653U 22012AH  26140.45956149 -.00000288  00000+0 -86008-3 0  9997
2 51653  87.8857  41.7958 0001994  76.7758 283.3592 13.10375161205672
ONEWEB-0474             
1 51654U 22012AJ  26140.22218329 -.00000498  00000+0 -14636-2 0  9994
2 51654  87.8867  41.8246 0002055  71.4233 288.7117 13.10375144205633
ONEWEB-0475             
1 51655U 22012AK  26140.58157998  .00000055  00000+0  10732-3 0  9999
2 51655  87.9160  11.3619 0002292  70.1504 289.9875 13.17648666210052
ONEWEB-0490             
1 54113U 22138A   26140.23400819 -.00000074  00000+0 -21822-3 0  9990
2 54113  87.9153 310.5383 0001744  87.4888 272.6444 13.19726265173148
ONEWEB-0492             
1 54114U 22138B   26140.03182772  .00000125  00000+0  28107-3 0  9992
2 54114  87.9148 310.5826 0001542  90.9423 269.1887 13.19725976173123
ONEWEB-0495             
1 54115U 22138C   26140.23716693  .00000088  00000+0  18789-3 0  9993
2 54115  87.9146 310.5439 0001593  70.9461 289.1844 13.19726046173133
ONEWEB-0497             
1 54116U 22138D   26140.47725281  .00000068  00000+0  13806-3 0  9996
2 54116  87.9151 310.4871 0001744  90.7927 269.3406 13.19726167173154
ONEWEB-0499             
1 54117U 22138E   26140.23322308 -.00000065  00000+0 -19396-3 0  9993
2 54117  87.9144 310.5462 0001850  84.5399 275.5945 13.19725048173138
ONEWEB-0500             
1 54118U 22138F   26140.46303771  .00000003  00000+0 -25017-4 0  9991
2 54118  87.9154 310.4920 0001758  94.5589 265.5745 13.19726296173174
ONEWEB-0501             
1 54119U 22138G   26140.18979138  .00000010  00000+0 -76597-5 0  9995
2 54119  87.9155 310.5464 0001724  81.9704 278.1625 13.19725263173116
ONEWEB-0502             
1 54120U 22138H   26140.17555602  .00000035  00000+0  54894-4 0  9993
2 54120  87.9155 310.5380 0001854  84.1597 275.9747 13.19726350173134
ONEWEB-0503             
1 54121U 22138J   26140.16451014 -.00000061  00000+0 -18574-3 0  9990
2 54121  87.9158 310.5455 0002079  92.0989 268.0382 13.19725651173124
ONEWEB-0504             
1 54122U 22138K   26140.45513548  .00000001  00000+0 -29112-4 0  9998
2 54122  87.9155 310.4930 0001891  85.2468 274.8881 13.19724901173177
ONEWEB-0505             
1 54123U 22138L   26140.22453005 -.00000067  00000+0 -19942-3 0  9997
2 54123  87.9159 310.5399 0001784  76.8560 283.2772 13.19724047173121
