[{"OBJECT_NAME":"ONEWEB-0464","OBJECT_ID":"2022-012AF","EPOCH":"2026-05-20T11:13:44.063904","MEAN_MOTION":13.10374908,"ECCENTRICITY":0.0002026,"INCLINATION":87.8856,"RA_OF_ASC_NODE":41.7984,"ARG_OF_PERICENTER":71.7644,"MEAN_ANOMALY":288.3704,"EPHEMERIS_TYPE":0,"CLASSIFICATION_TYPE":"U","NORAD_CAT_ID":51651,"ELEMENT_SET_NO":999,"REV_AT_EPOCH":20569,"BSTAR":0.00046634,"MEAN_MOTION_DOT":1.75e-06,"MEAN_MOTION_DDOT":0.0},{"OBJECT_NAME":"ONEWEB-0468","OBJECT_ID":"2022-012AG","EPOCH":"2026-05-20T11:23:18.314592","MEAN_MOTION":13.10376687,"ECCENTRICITY":0.0002008,"INCLINATION":87.8854,"RA_OF_ASC_NODE":41.7915,"ARG_OF_PERICENTER":69.5561,"MEAN_ANOMALY":290.5782,"EPHEMERIS_TYPE":0,"CLASSIFICATION_TYPE":"U","NORAD_CAT_ID":51652,"ELEMENT_SET_NO":999,"REV_AT_EPOCH":20567,"BSTAR":0.0014892,"MEAN_MOTION_DOT":5.33e-06,"MEAN_MOTION_DDOT":0.0},{"OBJECT_NAME":"ONEWEB-0473","OBJECT_ID":"2022-012AH","EPOCH":"2026-05-20T11:01:46.112736","MEAN_MOTION":13.10375161,"ECCENTRICITY":0.0001994,"INCLINATION":87.8857,"RA_OF_ASC_NODE":41.7958,"ARG_OF_PERICENTER":76.7758,"MEAN_ANOMALY":283.3592,"EPHEMERIS_TYPE":0,"CLASSIFICATION_TYPE":"U","NORAD_CAT_ID":51653,"ELEMENT_SET_NO":999,"REV_AT_EPOCH":20567,"BSTAR":-0.0008600799999999999,"MEAN_MOTION_DOT":-2.88e-06,"MEAN_MOTION_DDOT":0.0},{"OBJECT_NAME":"ONEWEB-0474","OBJECT_ID":"2022-012AJ","EPOCH":"2026-05-20T05:19:56.636256","MEAN_MOTION":13.10375144,"ECCENTRICITY":0.0002055,"INCLINATION":87.8867,"RA_OF_ASC_NODE":41.8246,"ARG_OF_PERICENTER":71.4233,"MEAN_ANOMALY":288.7117,"EPHEMERIS_TYPE":0,"CLASSIFICATION_TYPE":"U","NORAD_CAT_ID":51654,"ELEMENT_SET_NO":999,"REV_AT_EPOCH":20563,"BSTAR":-0.0014636,"MEAN_MOTION_DOT":-4.98e-06,"MEAN_MOTION_DDOT":0.0},{"OBJECT_NAME":"ONEWEB-0475","OBJECT_ID":"2022-012AK","EPOCH":"2026-05-20T13:57:28.510272","MEAN_MOTION":13.17648666,"ECCENTRICITY":0.0002292,"INCLINATION":87.916,"RA_OF_ASC_NODE":11.3619,"ARG_OF_PERICENTER":70.1504,"MEAN_ANOMALY":289.9875,"EPHEMERIS_TYPE":0,"CLASSIFICATION_TYPE":"U","NORAD_CAT_ID":51655,"ELEMENT_SET_NO":999,"REV_AT_EPOCH":21005,"BSTAR":0.00010732,"MEAN_MOTION_DOT":5.5e-07,"MEAN_MOTION_DDOT":0.0},{"OBJECT_NAME":"ONEWEB-0490","OBJECT_ID":"2022-138A","EPOCH":"2026-05-20T05:36:58.307616","MEAN_MOTION":13.19726265,"ECCENTRICITY":0.0001744,"INCLINATION":87.9153,"RA_OF_ASC_NODE":310.5383,"ARG_OF_PERICENTER":87.4888,"MEAN_ANOMALY":272.6444,"EPHEMERIS_TYPE":0,"CLASSIFICATION_TYPE":"U","NORAD_CAT_ID":54113,"ELEMENT_SET_NO":999,"REV_AT_EPOCH":17314,"BSTAR":-0.00021822,"MEAN_MOTION_DOT":-7.4e-07,"MEAN_MOTION_DDOT":0.0},{"OBJECT_NAME":"ONEWEB-0492","OBJECT_ID":"2022-138B","EPOCH":"2026-05-20T00:45:49.915008","MEAN_MOTION":13.19725976,"ECCENTRICITY":0.0001542,"INCLINATION":87.9148,"RA_OF_ASC_NODE":310.5826,"ARG_OF_PERICENTER":90.9423,"MEAN_ANOMALY":269.1887,"EPHEMERIS_TYPE":0,"CLASSIFICATION_TYPE":"U","NORAD_CAT_ID":54114,"ELEMENT_SET_NO":999,"REV_AT_EPOCH":17312,"BSTAR":0.00028107,"MEAN_MOTION_DOT":1.25e-06,"MEAN_MOTION_DDOT":0.0},{"OBJECT_NAME":"ONEWEB-0495","OBJECT_ID":"2022-138C","EPOCH":"2026-05-20T05:41:31.222752","MEAN_MOTION":13.19726046,"ECCENTRICITY":0.0001593,"INCLINATION":87.9146,"RA_OF_ASC_NODE":310.5439,"ARG_OF_PERICENTER":70.9461,"MEAN_ANOMALY":289.1844,"EPHEMERIS_TYPE":0,"CLASSIFICATION_TYPE":"U","NORAD_CAT_ID":54115,"ELEMENT_SET_NO":999,"REV_AT_EPOCH":17313,"BSTAR":0.00018789000000000002,"MEAN_MOTION_DOT":8.8e-07,"MEAN_MOTION_DDOT":0.0},{"OBJECT_NAME":"ONEWEB-0497","OBJECT_ID":"2022-138D","EPOCH":"2026-05-20T11:27:14.642784","MEAN_MOTION":13.19726167,"ECCENTRICITY":0.0001744,"INCLINATION":87.9151,"RA_OF_ASC_NODE":310.4871,"ARG_OF_PERICENTER":90.7927,"MEAN_ANOMALY":269.3406,"EPHEMERIS_TYPE":0,"CLASSIFICATION_TYPE":"U","NORAD_CAT_ID":54116,"ELEMENT_SET_NO":999,"REV_AT_EPOCH":17315,"BSTAR":0.00013806,"MEAN_MOTION_DOT":6.8e-07,"MEAN_MOTION_DDOT":0.0},{"OBJECT_NAME":"ONEWEB-0499","OBJECT_ID":"2022-138E","EPOCH":"2026-05-20T05:35:50.474112","MEAN_MOTION":13.19725048,"ECCENTRICITY":0.000185,"INCLINATION":87.9144,"RA_OF_ASC_NODE":310.5462,"ARG_OF_PERICENTER":84.5399,"MEAN_ANOMALY":275.5945,"EPHEMERIS_TYPE":0,"CLASSIFICATION_TYPE":"U","NORAD_CAT_ID":54117,"ELEMENT_SET_NO":999,"REV_AT_EPOCH":17313,"BSTAR":-0.00019396,"MEAN_MOTION_DOT":-6.5e-07,"MEAN_MOTION_DDOT":0.0},{"OBJECT_NAME":"ONEWEB-0500","OBJECT_ID":"2022-138F","EPOCH":"2026-05-20T11:06:46.458144","MEAN_MOTION":13.19726296,"ECCENTRICITY":0.0001758,"INCLINATION":87.9154,"RA_OF_ASC_NODE":310.492,"ARG_OF_PERICENTER":94.5589,"MEAN_ANOMALY":265.5745,"EPHEMERIS_TYPE":0,"CLASSIFICATION_TYPE":"U","NORAD_CAT_ID":54118,"ELEMENT_SET_NO":999,"REV_AT_EPOCH":17317,"BSTAR":-2.5017e-05,"MEAN_MOTION_DOT":3e-08,"MEAN_MOTION_DDOT":0.0},{"OBJECT_NAME":"ONEWEB-0501","OBJECT_ID":"2022-138G","EPOCH":"2026-05-20T04:33:17.975232","MEAN_MOTION":13.19725263,"ECCENTRICITY":0.0001724,"INCLINATION":87.9155,"RA_OF_ASC_NODE":310.5464,"ARG_OF_PERICENTER":81.9704,"MEAN_ANOMALY":278.1625,"EPHEMERIS_TYPE":0,"CLASSIFICATION_TYPE":"U","NORAD_CAT_ID":54119,"ELEMENT_SET_NO":999,"REV_AT_EPOCH":17311,"BSTAR":-7.6597e-06,"MEAN_MOTION_DOT":1e-07,"MEAN_MOTION_DDOT":0.0},{"OBJECT_NAME":"ONEWEB-0502","OBJECT_ID":"2022-138H","EPOCH":"2026-05-20T04:12:48.040128","MEAN_MOTION":13.1972635,"ECCENTRICITY":0.0001854,"INCLINATION":87.9155,"RA_OF_ASC_NODE":310.538,"ARG_OF_PERICENTER":84.1597,"MEAN_ANOMALY":275.9747,"EPHEMERIS_TYPE":0,"CLASSIFICATION_TYPE":"U","NORAD_CAT_ID":54120,"ELEMENT_SET_NO":999,"REV_AT_EPOCH":17313,"BSTAR":5.4894e-05,"MEAN_MOTION_DOT":3.5e-07,"MEAN_MOTION_DDOT":0.0},{"OBJECT_NAME":"ONEWEB-0503","OBJECT_ID":"2022-138J","EPOCH":"2026-05-20T03:56:53.676096","MEAN_MOTION":13.19725651,"ECCENTRICITY":0.0002079,"INCLINATION":87.9158,"RA_OF_ASC_NODE":310.5455,"ARG_OF_PERICENTER":92.0989,"MEAN_ANOMALY":268.0382,"EPHEMERIS_TYPE":0,"CLASSIFICATION_TYPE":"U","NORAD_CAT_ID":54121,"ELEMENT_SET_NO":999,"REV_AT_EPOCH":17312,"BSTAR":-0.00018574,"MEAN_MOTION_DOT":-6.1e-07,"MEAN_MOTION_DDOT":0.0},{"OBJECT_NAME":"ONEWEB-0504","OBJECT_ID":"2022-138K","EPOCH":"2026-05-20T10:55:23.705472","MEAN_MOTION":13.19724901,"ECCENTRICITY":0.0001891,"INCLINATION":87.9155,"RA_OF_ASC_NODE":310.493,"ARG_OF_PERICENTER":85.2468,"MEAN_ANOMALY":274.8881,"EPHEMERIS_TYPE":0,"CLASSIFICATION_TYPE":"U","NORAD_CAT_ID":54122,"ELEMENT_SET_NO":999,"REV_AT_EPOCH":17317,"BSTAR":-2.9112000000000002e-05,"MEAN_MOTION_DOT":1e-08,"MEAN_MOTION_DDOT":0.0},{"OBJECT_NAME":"ONEWEB-0505","OBJECT_ID":"2022-138L","EPOCH":"2026-05-20T05:23:19.396320","MEAN_MOTION":13.19724047,"ECCENTRICITY":0.0001784,"INCLINATION":87.9159,"RA_OF_ASC_NODE":310.5399,"ARG_OF_PERICENTER":76.856,"MEAN_ANOMALY":283.2772,"EPHEMERIS_TYPE":0,"CLASSIFICATION_TYPE":"U","NORAD_CAT_ID":54123,"ELEMENT_SET_NO":999,"REV_AT_EPOCH":17312,"BSTAR":-0.00019941999999999998,"MEAN_MOTION_DOT":-6.7e-07,"MEAN_MOTION_DDOT":0.0}]